satname,norad_id,inclination_deg,eccentricity,mean_motion_rev_per_day,perigee_km,apogee_km,l1,l2
STARLINK-1475,45739,53.049,0.0006118,15.76288586,336.85611071265885,345.07760619386227,1 45739U 20038K   25303.91668980  .00293924  00000+0  17711-2 0  9998,2 45739  53.0490 323.6184 0006118   7.5293 123.3216 15.76288586  6011
STARLINK-1480,45741,53.0534,0.0001039,15.06377485,546.5610131451049,548.0001149149102,1 45741U 20038M   25302.86056709 -.00003358  00000+0 -20679-3 0  9994,2 45741  53.0534 103.9342 0001039  79.1376 280.9729 15.06377485296483
STARLINK-1500,45744,53.0405,0.0002951,15.27454416,481.40031848357376,485.4500124736396,1 45744U 20038Q   25303.71356421  .00029128  00000+0  10783-2 0  9991,2 45744  53.0405  79.0165 0002951 184.0131 176.0844 15.27454416296901
STARLINK-1504,45746,53.0293,0.0002233,15.40236761,443.88626565293725,446.93366172692095,1 45746U 20038S   25303.01318545  .00071166  00000+0  17368-2 0  9996,2 45746  53.0293  47.0007 0002233 208.8115 151.2765 15.40236761297283
STARLINK-1506,45747,53.0574,0.0002418,15.21266529,500.3556289214621,503.6828724843008,1 45747U 20038T   25302.87817426  .00014645  00000+0  66023-3 0  9994,2 45747  53.0574  85.3189 0002418 199.9733 160.1168 15.21266529296743
STARLINK-1464,45751,53.0555,0.0002396,15.0638396,545.6013933709182,548.9200439577016,1 45751U 20038X   25303.12780079  .00000152  00000+0  29117-4 0  9993,2 45751  53.0555  82.7324 0002396  89.7998 270.3265 15.06383960296804
STARLINK-1477,45754,53.0562,4.7e-05,15.06430181,546.793572029721,547.4445460992729,1 45754U 20038AA  25302.67806675  .00006023  00000+0  42254-3 0  9995,2 45754  53.0562  84.7514 0000470  10.4998 349.6000 15.06430181296737
STARLINK-1478,45755,53.0517,0.0001258,15.06395357,546.354577462369,548.0969987398548,1 45755U 20038AB  25303.75808134 -.00000004  00000+0  18654-4 0  9990,2 45755  53.0517  79.9018 0001258  87.9253 272.1880 15.06395357296888
STARLINK-1484,45756,53.0179,0.0001643,15.60071619,386.3384260696166,388.5615979617651,1 45756U 20038AC  25303.30243876  .00094760  00000+0  11407-2 0  9996,2 45756  53.0179 348.0681 0001643 343.9663  16.1296 15.60071619298136
STARLINK-1493,45759,53.0539,0.0001458,15.06395606,546.2153071649218,548.2347427313971,1 45759U 20038AF  25303.81336944  .00000572  00000+0  57317-4 0  9994,2 45759  53.0539  79.6533 0001458  88.6677 271.4479 15.06395606296899
STARLINK-1494,45760,53.055,0.0001936,15.51187687,411.9424290964689,414.57205694736695,1 45760U 20038AG  25303.05450294  .00042834  00000+0  72424-3 0  9999,2 45760  53.0550  68.6254 0001936  19.3642 340.7439 15.51187687296991
STARLINK-1502,45764,53.0553,5.79e-05,15.06386926,546.8506481535123,547.6526081566526,1 45764U 20038AL  25303.78019933  .00001472  00000+0  11770-3 0  9994,2 45764  53.0553  79.8027 0000579 135.4562 224.6473 15.06386926296909
STARLINK-1470,45772,53.0492,0.0003137,15.1759976,510.93540034115176,515.2589606659985,1 45772U 20038AU  25303.70770369  .00040709  00000+0  20048-2 0  9995,2 45772  53.0492  52.6619 0003137 224.6263 135.4478 15.17599760297277
STARLINK-1482,45773,53.0592,0.0001172,15.06405537,546.382939020632,548.0062367448318,1 45773U 20038AV  25302.61727969  .00003822  00000+0  27527-3 0  9998,2 45773  53.0592  65.0239 0001172  91.8261 268.2862 15.06405537297003
STARLINK-1485,45774,53.0377,0.0007838,16.13479888,232.1290141738191,242.49939548250768,1 45774U 20038AW  25303.52480326  .01357419  13289-2  11272-2 0  9993,2 45774  53.0377 348.9614 0007838  15.8408 344.2870 16.13479888298148
STARLINK-1496,45780,53.0552,0.0001506,15.06395856,546.1812993249832,548.2672181361131,1 45780U 20038BC  25303.71200984  .00002000  00000+0  15312-3 0  9997,2 45780  53.0552  60.1072 0001506  82.4350 277.6810 15.06395856297159
STARLINK-1497,45781,53.0404,0.0006126,15.53912035,401.1615104768116,409.4725983843,1 45781U 20038BD  25303.91668980 -.00068674  00000+0 -10478-2 0  9992,2 45781  53.0404   4.7486 0006126 281.2089  65.1234 15.53912035  5906
STARLINK-1510,45784,53.0365,0.0001454,15.6935575,359.76083619253586,361.72050181868235,1 45784U 20038BG  25303.91668980  .00205612  00000+0  16845-2 0  9992,2 45784  53.0365 341.0190 0001454  53.8944 133.2533 15.69355750  5895
STARLINK-1513,45786,53.0562,0.0001502,15.06395295,546.1857886038524,548.2661676424796,1 45786U 20038BJ  25303.74148701  .00000572  00000+0  57321-4 0  9993,2 45786  53.0562  59.9793 0001502  88.7742 271.3419 15.06395295297177
STARLINK-1522,46027,53.0552,0.0001424,15.06422927,546.1551312479542,548.127450505197,1 46027U 20055A   25302.52789185  .00009515  00000+0  65638-3 0  9998,2 46027  53.0552 355.4257 0001424  76.2174 283.8973 15.06422927289119
STARLINK-1523,46028,53.056,0.0001388,15.06415053,546.204191069166,548.1266550218024,1 46028U 20055B   25302.87437440  .00004603  00000+0  32756-3 0  9999,2 46028  53.0560 353.8712 0001388  93.1351 266.9797 15.06415053289186
STARLINK-1526,46029,53.0551,0.000144,15.06421008,546.1499312714477,548.1444131130384,1 46029U 20055C   25302.53526338  .00009613  00000+0  66299-3 0  9993,2 46029  53.0551 355.3899 0001440  88.7784 271.3370 15.06421008289127
STARLINK-1555,46032,53.0546,0.0001892,15.0640099,545.8982483594355,548.5187991056146,1 46032U 20055F   25303.31669022  .00005184  00000+0  36666-3 0  9996,2 46032  53.0546 351.8833 0001892  87.4521 272.6684 15.06400990289242
STARLINK-1556,46033,53.0556,0.0001329,15.06400185,546.290612191985,548.131369687977,1 46033U 20055G   25303.29825340  .00000452  00000+0  49253-4 0  9991,2 46033  53.0556 351.9665 0001329  94.7099 265.4042 15.06400185289215
STARLINK-1557,46034,53.0559,0.0001295,15.06401288,546.3107782795478,548.1044425336422,1 46034U 20055H   25303.30194778  .00000105  00000+0  25944-4 0  9994,2 46034  53.0559 351.9519 0001295  84.3734 275.7403 15.06401288289210
STARLINK-1558,46035,53.0555,0.0001317,15.06396468,546.3103131999815,548.1344528614718,1 46035U 20055J   25303.30931848  .00001099  00000+0  92660-4 0  9994,2 46035  53.0555 351.9192 0001317  84.0185 276.0954 15.06396468289247
STARLINK-1560,46036,53.0557,0.0001426,15.06405595,546.206857863097,548.1819623812644,1 46036U 20055K   25303.29456551  .00006279  00000+0  43997-3 0  9999,2 46036  53.0557 351.9875 0001426 101.5527 258.5623 15.06405595289244
STARLINK-1567,46038,53.0577,0.0001878,15.06395061,545.9261120013125,548.5272786052683,1 46038U 20055M   25303.30563151 -.00001899  00000+0 -10865-3 0  9991,2 46038  53.0577 351.9364 0001878 107.7740 252.3455 15.06395061289237
